SWAS                    
1 25560U 98071A   26068.53487068  .00004636  00000+0  29986-3 0  9991
2 25560  69.8952 124.3662 0004099  14.3215 345.8065 15.08888192482231
STARLINK-3966           
1 52552U 22051V   26068.33842802 -.00002338  00000+0 -12890-3 0  9991
2 52552  53.2168 130.8518 0001235 101.2910 258.8221 15.08835623211392
